SHIJIAN-17 (SJ-17)      
1 41838U 16065A   26176.61362059  .00000120  00000+0  00000+0 0  9997
2 41838   5.7742  72.5069 0002205  28.1590 257.1685  0.99858283 35288
GOES 16                 
1 41866U 16071A   26176.52367214 -.00000081  00000+0  00000+0 0  9990
2 41866   0.3627  85.5312 0000531   2.7428 269.2126  1.00272037 35188
TIANLIAN 1-04           
1 41869U 16072A   26176.77384874  .00000041  00000+0  00000+0 0  9997
2 41869   0.8903  82.8715 0042841  90.2934 196.1034  1.00272904 35385
WGS F8 (USA 272)        
1 41879U 16075A   26175.91306345 -.00000193  00000+0  00000+0 0  9992
2 41879   0.0144  91.7378 0000088  71.5099 228.3405  1.00271006 34897
FENGYUN 4A              
1 41882U 16077A   26176.83469715 -.00000349  00000+0  00000+0 0  9994
2 41882   2.3453  80.1974 0008256 152.1721 105.6980  1.00264910 35012
ECHOSTAR 19             
1 41893U 16079A   26176.36315022 -.00000129  00000+0  00000+0 0  9993
2 41893   0.0190  14.7865 0001605  75.4946 216.8528  1.00272042 34787
JCSAT-110A (JCSAT-15)   
1 41903U 16082A   26176.59280796 -.00000341  00000+0  00000+0 0  9999
2 41903   0.0187   1.0191 0000785  97.6725 138.5159  1.00271693 34843
STAR ONE D1             
1 41904U 16082B   26176.50835367 -.00000201  00000+0  00000+0 0  9996
2 41904   0.0192  47.3001 0002290  61.6183 263.7374  1.00272127 34859
TJS-2                   
1 41911U 17001A   26176.82334375  .00000003  00000+0  00000+0 0  9993
2 41911   0.8558  85.2307 0000725  44.3625 147.3001  1.00272061 34807
SBIRS GEO-4 (USA 273)   
1 41937U 17004A   26176.81430462  .00000132  00000+0  00000+0 0  9990
2 41937   2.2596  43.5220 0002351  42.7296 141.7433  1.00273261 34683
HISPASAT 36W-1          
1 41942U 17006A   26176.80305182  .00000000  00000+0  00000+0 0  9991
2 41942   0.0115  13.6207 0001063  87.9718  65.4528  1.00269860 34333
TELKOM 3S               
1 41944U 17007A   26176.70253147 -.00000352  00000+0  00000+0 0  9997
2 41944   0.0174  41.1293 0002525  57.6939 185.9144  1.00269768 34221
INTELSAT 32E (IS-32E)   
1 41945U 17007B   26176.65883166  .00000000  00000+0  00000+0 0  9991
2 41945   0.0263  11.9073 0000688 345.1971 110.6851  1.00268510 34315
ECHOSTAR 23             
1 42070U 17014A   26176.36063686 -.00000047  00000+0  00000+0 0  9996
2 42070   0.0031  86.2311 0002137   8.3167 198.8773  1.00273040 34005
WGS F9 (USA 275)        
1 42075U 17016A   26176.73647244  .00000000  00000+0  00000+0 0  9990
2 42075   0.0242 346.0936 0000288  63.1936 117.7138  1.00271870 33982
SES-10                  
1 42432U 17017A   26176.36913023 -.00000263  00000+0  00000+0 0  9990
2 42432   0.0216  41.9132 0003038  56.8061 240.7783  1.00273735 33832
CHINASAT 16 (SJ-13)     
1 42662U 17018A   26176.54688032 -.00000341  00000+0  00000+0 0  9992
2 42662   0.0986  89.6888 0005846 148.6344 342.7796  1.00253062 33839
KOREASAT 7              
1 42691U 17023A   26176.83313713 -.00000351  00000+0  00000+0 0  9994
2 42691   0.0190  13.4981 0000503  57.8287 258.4736  1.00270590 33459
SGDC                    
1 42692U 17023B   26176.44802957 -.00000240  00000+0  00000+0 0  9992
2 42692   0.0199  53.1000 0002797  46.1087 260.8186  1.00271993 33485
GSAT-9                  
1 42695U 17024A   26175.13532341 -.00000278  00000+0  00000+0 0  9999
2 42695   0.0293  83.4380 0002463   6.0146 328.7950  1.00266413 33362
INMARSAT 5-F4           
1 42698U 17025A   26175.18162001  .00000083  00000+0  00000+0 0  9993
2 42698   0.0032  84.3686 0000934 288.6264  21.2184  1.00265152 33346
SES-15                  
1 42709U 17026A   26175.50131078  .00000068  00000+0  00000+0 0  9996
2 42709   0.0193 335.4736 0000659  95.5096 252.9752  1.00268280  7503
QZS-2 (MICHIBIKI-2)     
1 42738U 17028A   26175.48562404 -.00000157  00000+0  00000+0 0  9998
2 42738  39.4163 243.0474 0759303 269.3393  77.0374  1.00282000  7691
VIASAT-2                
1 42740U 17029A   26175.22767060 -.00000258  00000+0  00000+0 0  9991
2 42740   0.0153 301.1892 0000353 112.3888 230.8800  1.00272341 33270
EUTELSAT 172B           
1 42741U 17029B   26176.80530961  .00000005  00000+0  00000+0 0  9994
2 42741   0.0417 145.2473 0000243 292.2256 298.3778  1.00271208 33826
GSAT-19                 
1 42747U 17031A   26176.81967796  .00000136  00000+0  00000+0 0  9999
2 42747   0.0147 307.7667 0007159 128.0715 181.0459  1.00271775 33239
ECHOSTAR 21             
1 42749U 17032A   26176.81222461  .00000076  00000+0  00000+0 0  9998
2 42749   1.7702 356.2958 0002597  86.4919 133.8149  1.00272977 33182
BULGARIASAT-1           
1 42801U 17038A   26175.31339304  .00000019  00000+0  00000+0 0  9999
2 42801   0.0266  73.0671 0003692  27.7362 286.3807  1.00276080 32915
HELLAS-SAT 3            
1 42814U 17040A   26176.21850447  .00000162  00000+0  00000+0 0  9991
2 42814   0.0388  32.2362 0004850  27.6131 331.2103  1.00276198 32883
GSAT-17                 
1 42815U 17040B   26176.75732148 -.00000248  00000+0  00000+0 0  9994
2 42815   0.0284  85.2800 0001455 207.5925 347.1520  1.00272950 32872
INTELSAT 35E (IS-35E)   
1 42818U 17041A   26176.51806038  .00000000  00000+0  00000+0 0  9997
2 42818   0.0245  11.9779 0002380  83.8780 329.8151  1.00269523 32896
COSMOS 2520             
1 42907U 17046A   26174.90294715  .00000143  00000+0  00000+0 0  9993
2 42907   0.0481  95.9270 0000820  77.4277 108.7874  1.00274167 32461
