OBJECT_NAME,OBJECT_ID,EPOCH,MEAN_MOTION,ECCENTRICITY,INCLINATION,RA_OF_ASC_NODE,ARG_OF_PERICENTER,MEAN_ANOMALY,EPHEMERIS_TYPE,CLASSIFICATION_TYPE,NORAD_CAT_ID,ELEMENT_SET_NO,REV_AT_EPOCH,BSTAR,MEAN_MOTION_DOT,MEAN_MOTION_DDOT
SHIJIAN-17 (SJ-17),2016-065A,2026-06-25T14:43:36.818976,0.99858283,.0002205,5.7742,72.5069,28.1590,257.1685,0,U,41838,999,3528,0,.12E-5,0
GOES 16,2016-071A,2026-06-25T12:34:05.272896,1.00272037,.0000531,0.3627,85.5312,2.7428,269.2126,0,U,41866,999,3518,0,-.81E-6,0
TIANLIAN 1-04,2016-072A,2026-06-25T18:34:20.531136,1.00272904,.0042841,0.8903,82.8715,90.2934,196.1034,0,U,41869,999,3538,0,.41E-6,0
WGS F8 (USA 272),2016-075A,2026-06-24T21:54:48.682080,1.00271006,.00000886,0.0144,91.7378,71.5099,228.3405,0,U,41879,999,3489,0,-.193E-5,0
FENGYUN 4A,2016-077A,2026-06-25T20:01:57.833760,1.00264910,.0008256,2.3453,80.1974,152.1721,105.6980,0,U,41882,999,3501,0,-.349E-5,0
ECHOSTAR 19,2016-079A,2026-06-25T08:42:56.179008,1.00272042,.0001605,0.0190,14.7865,75.4946,216.8528,0,U,41893,999,3478,0,-.129E-5,0
JCSAT-110A (JCSAT-15),2016-082A,2026-06-25T14:13:38.607744,1.00271693,.0000785,0.0187,1.0191,97.6725,138.5159,0,U,41903,999,3484,0,-.341E-5,0
STAR ONE D1,2016-082B,2026-06-25T12:12:01.757088,1.00272127,.000229,0.0192,47.3001,61.6183,263.7374,0,U,41904,999,3485,0,-.201E-5,0
TJS-2,2017-001A,2026-06-25T19:45:36.900000,1.00272061,.0000725,0.8558,85.2307,44.3625,147.3001,0,U,41911,999,3480,0,.3E-7,0
SBIRS GEO-4 (USA 273),2017-004A,2026-06-25T19:32:35.919168,1.00273261,.0002351,2.2596,43.5220,42.7296,141.7433,0,U,41937,999,3468,0,.132E-5,0
HISPASAT 36W-1,2017-006A,2026-06-25T19:16:23.677248,1.00269860,.0001063,0.0115,13.6207,87.9718,65.4528,0,U,41942,999,3433,0,0,0
TELKOM 3S,2017-007A,2026-06-25T16:51:38.719008,1.00269768,.0002525,0.0174,41.1293,57.6939,185.9144,0,U,41944,999,3422,0,-.352E-5,0
INTELSAT 32E (IS-32E),2017-007B,2026-06-25T15:48:43.055424,1.00268510,.0000688,0.0263,11.9073,345.1971,110.6851,0,U,41945,999,3431,0,0,0
ECHOSTAR 23,2017-014A,2026-06-25T08:39:19.024704,1.00273040,.0002137,0.0031,86.2311,8.3167,198.8773,0,U,42070,999,3400,0,-.47E-6,0
WGS F9 (USA 275),2017-016A,2026-06-25T17:40:31.218816,1.00271870,.0000288,0.0242,346.0936,63.1936,117.7138,0,U,42075,999,3398,0,0,0
SES-10,2017-017A,2026-06-25T08:51:32.851872,1.00273735,.0003038,0.0216,41.9132,56.8061,240.7783,0,U,42432,999,3383,0,-.263E-5,0
CHINASAT 16 (SJ-13),2017-018A,2026-06-25T13:07:30.459648,1.00253062,.0005846,0.0986,89.6888,148.6344,342.7796,0,U,42662,999,3383,0,-.341E-5,0
KOREASAT 7,2017-023A,2026-06-25T19:59:43.048032,1.00270590,.0000503,0.0190,13.4981,57.8287,258.4736,0,U,42691,999,3345,0,-.351E-5,0
SGDC,2017-023B,2026-06-25T10:45:09.754848,1.00271993,.0002797,0.0199,53.1000,46.1087,260.8186,0,U,42692,999,3348,0,-.24E-5,0
GSAT-9,2017-024A,2026-06-24T03:14:51.942624,1.00266413,.00024638,0.0293,83.4380,6.0146,328.7950,0,U,42695,999,3336,0,-.278E-5,0
INMARSAT 5-F4,2017-025A,2026-06-24T04:21:31.968864,1.00265152,.0000934,0.0032,84.3686,288.6264,21.2184,0,U,42698,999,3334,0,.83E-6,0
SES-15,2017-026A,2026-06-24T12:01:53.251392,1.00268280,.00006599,0.0193,335.4736,95.5096,252.9752,0,U,42709,999,750,0,.68E-6,0
QZS-2 (MICHIBIKI-2),2017-028A,2026-06-24T11:39:17.917056,1.00282000,.07593031,39.4163,243.0474,269.3393,77.0374,0,U,42738,999,769,0,-.157E-5,0
VIASAT-2,2017-029A,2026-06-24T05:27:50.739840,1.00272341,.00003535,0.0153,301.1892,112.3888,230.8800,0,U,42740,999,3327,0,-.258E-5,0
EUTELSAT 172B,2017-029B,2026-06-25T19:19:38.750304,1.00271208,.0000243,0.0417,145.2473,292.2256,298.3778,0,U,42741,999,3382,0,.5E-7,0
GSAT-19,2017-031A,2026-06-25T19:40:20.175744,1.00271775,.0007159,0.0147,307.7667,128.0715,181.0459,0,U,42747,999,3323,0,.136E-5,0
ECHOSTAR 21,2017-032A,2026-06-25T19:29:36.206304,1.00272977,.0002597,1.7702,356.2958,86.4919,133.8149,0,U,42749,999,3318,0,.76E-6,0
BULGARIASAT-1,2017-038A,2026-06-24T07:31:17.158656,1.00276080,.0003692,0.0266,73.0671,27.7362,286.3807,0,U,42801,999,3291,0,.19E-6,0
HELLAS-SAT 3,2017-040A,2026-06-25T05:14:38.786208,1.00276198,.000485,0.0388,32.2362,27.6131,331.2103,0,U,42814,999,3288,0,.162E-5,0
GSAT-17,2017-040B,2026-06-25T18:10:32.575872,1.00272950,.0001455,0.0284,85.2800,207.5925,347.1520,0,U,42815,999,3287,0,-.248E-5,0
INTELSAT 35E (IS-35E),2017-041A,2026-06-25T12:26:00.416832,1.00269523,.000238,0.0245,11.9779,83.8780,329.8151,0,U,42818,999,3289,0,0,0
COSMOS 2520,2017-046A,2026-06-23T21:40:14.633760,1.00274167,.00008208,0.0481,95.9270,77.4277,108.7874,0,U,42907,999,3246,0,.143E-5,0
